BEESAT-4                
1 41619U 16040W   21192.40008765  .00001715  00000-0  70123-4 0  9998
2 41619  97.2677 247.8197 0009041 241.4663 118.5666 15.25650109268664
CAS-2T & KS-1Q          
1 41847U 16066G   21192.40847884  .00000162  00000-0  33903-4 0  9992
2 41847  98.5998 251.6381 0365938 148.7508 213.6007 14.38208020245320
NAYIF-1 (EO-88)         
1 42017U 17008BX  21192.45973942  .00001923  00000-0  72324-4 0  9995
2 42017  97.3147 259.6303 0006737  38.4488 321.7230 15.28328489244922
ZHUHAI-1 02 (CAS-4B)    
1 42759U 17034B   21192.49872402  .00000483  00000-0  42351-4 0  9997
2 42759  43.0189  48.8848 0009961 312.5303 122.1614 15.10260692224788
ZHUHAI-1 01 (CAS-4A)    
1 42761U 17034D   21192.48800911  .00000459  00000-0  40816-4 0  9992
2 42761  43.0189  47.9802 0010291 313.2882 119.7724 15.10348331224780
MAX VALIER SAT          
1 42778U 17036P   21192.40619460  .00001283  00000-0  56187-4 0  9995
2 42778  97.2532 240.2306 0013691  92.3279 267.9526 15.23699116224937
RADFXSAT (FOX-1B)       
1 43017U 17073E   21191.73263353  .00000396  00000-0  36340-4 0  9997
2 43017  97.7051  94.7988 0253703 224.2196 133.8494 14.79595402196562
FOX-1D (AO-92)          
1 43137U 18004AC  21192.14656840  .00001424  00000-0  59260-4 0  9997
2 43137  97.4061 265.9363 0010211 122.5937 237.6288 15.25353937194266
DIWATA-2B               
1 43678U 18084H   21192.39972311  .00000363  00000-0  41762-4 0  9995
2 43678  97.9264 317.8038 0009421 340.8773  19.2037 14.91766512147001
ES'HAIL 2               
1 43700U 18090A   21192.03536045  .00000152  00000-0  00000+0 0  9990
2 43700   0.0160  74.5735 0001260  68.9302 184.1953  1.00273886  9848
FOX-1CLIFF (AO-95)      
1 43770U 18099N   21191.73667380  .00000754  00000-0  73389-4 0  9992
2 43770  97.6641 261.4089 0013867 346.0949  13.9888 14.95352766141939
ITASAT 1                
1 43786U 18099AE  21191.91894322  .00000106  00000-0  14644-4 0  9997
2 43786  97.6659 262.2817 0014445 337.4738  22.5847 14.95641741141997
JY1SAT (JO-97)          
1 43803U 18099AX  21191.74512042  .00000868  00000-0  82554-4 0  9994
2 43803  97.6624 261.8605 0014231 338.8005  21.2625 14.95896750141974
UWE-4                   
1 43880U 18111E   21191.71312172  .00000022  00000-0  69748-5 0  9996
2 43880  97.6859  99.0491 0013275  32.1732 328.0298 14.96904422138563
NEXUS (FO-99)           
1 43937U 19003F   21191.86560141  .00001618  00000-0  65554-4 0  9999
2 43937  97.1740 234.1089 0021297 291.0435  68.8526 15.25864539137833
PSAT2 (NO-104)          
1 44354U 19036R   21192.43353967  .00018433  00000-0  24064-3 0  9992
2 44354  28.5296 327.0859 0321976 176.0733 184.2483 15.14413930112604
BRICSAT2 (NO-103)       
1 44355U 19036S   21191.94223611  .00033904 -61497-5  34397-3 0  9993
2 44355  28.5283 281.3628 0255374 250.6619 106.6201 15.31749511113026
JAISAT-1                
1 44419U 19038F   21191.90553758  .00001106  00000-0  64699-4 0  9995
2 44419  97.5896 156.5226 0019616 228.6705 131.2839 15.13839968111348
DUCHIFAT-3              
1 44854U 19089C   21192.49858563  .00000564  00000-0  51414-4 0  9999
2 44854  36.9685 318.4342 0009561 328.8950  31.1216 14.99535148 86710
CAS-6 (TO-108)          
1 44881U 19093C   21192.51230625  .00000079  00000-0  16806-4 0  9997
2 44881  97.9237 271.0788 0014155 210.5571 149.4817 14.81462081 84296
RS-44 & BREEZE-KM R/B   
1 44909U 19096E   21192.08219557  .00000031  00000-0  77572-4 0  9999
2 44909  82.5216  97.1160 0218298  38.0870 323.5436 12.79710723 71892
ORBITAL FACTORY 2 (OF-2)
1 45113U 19071C   21192.41530342  .00001691  00000-0  58459-4 0  9991
2 45113  51.6426 281.3165 0012082  22.0196 338.1304 15.35951852 80856
HUSKYSAT-1 (HO-107)     
1 45119U 19071J   21191.64562903  .00002284  00000-0  75064-4 0  9999
2 45119  51.6422 284.4216 0011445  16.0524 344.0820 15.35965082 80735
BY70-2                  
1 45857U 20042B   21192.55829632  .00001357  00000-0  19921-3 0  9993
2 45857  97.9836 268.0558 0012568 131.3554 228.8732 14.77101765 55103
SALSAT                  
1 46495U 20068K   21191.88811248  .00000504  00000-0  41426-4 0  9998
2 46495  97.6948 129.2449 0016844 359.3596   0.7604 15.03491592 42852
BY70-3                  
1 46839U 20079N   21192.52768068  .00003377  00000-0  10538-3 0  9995
2 46839  97.2400 265.9066 0008758 115.0408   9.0269 15.33860973 37893
RADFXSAT-2 (AO-109)     
1 47311U 21002C   21191.74980950  .00000775  00000-0  45475-4 0  9995
2 47311  60.6849 203.9856 0039390  60.6949 299.8064 15.21730225 26411
UVSQ-SAT                
1 47438U 21006AB  21192.12167336  .00000957  00000-0  57462-4 0  9998
2 47438  97.4860 252.9209 0013242  23.8266 336.3575 15.13198884 25636
DIY-1 (ARDUIQUBE)       
1 47963U 21022AH  21191.99481930  .00001958  00000-0  13317-3 0  9994
2 47963  97.5574  93.9121 0018083 221.1010 138.8857 15.07366262 15442
